AEROCUBE 6B             
1 40046U 14033AN  26068.42625992  .00007941  00000+0  66368-3 0  9998
2 40046  97.7129 236.1645 0037452 343.2300  16.7681 14.98232474631816
STARLINK-34805          
1 65071U 25165R   26068.72881737  .00000932  00000+0  68802-4 0  9994
2 65071  97.6032 147.2278 0000704 127.4817 232.6474 15.05650108 34792
